{
    "links": {
        "self": "http://www.neowsapp.com/rest/v1/neo/3797476?api_key=iIulBulltgU6a56xZRHN4H3l9WmuAYTsLGpBGhQ2"
    },
    "id": "3797476",
    "neo_reference_id": "3797476",
    "name": "(2018 AK3)",
    "designation": "2018 AK3",
    "nasa_jpl_url": "http://ssd.jpl.nasa.gov/sbdb.cgi?sstr=3797476",
    "absolute_magnitude_h": 25.7,
    "estimated_diameter": {
        "kilometers": {
            "estimated_diameter_min": 0.0192555078,
            "estimated_diameter_max": 0.0430566244
        },
        "meters": {
            "estimated_diameter_min": 19.2555078188,
            "estimated_diameter_max": 43.0566244241
        },
        "miles": {
            "estimated_diameter_min": 0.0119648141,
            "estimated_diameter_max": 0.0267541378
        },
        "feet": {
            "estimated_diameter_min": 63.1742402722,
            "estimated_diameter_max": 141.2618956756
        }
    },
    "is_potentially_hazardous_asteroid": false,
    "close_approach_data": [
        {
            "close_approach_date": "2018-01-04",
            "close_approach_date_full": "2018-Jan-04 02:25",
            "epoch_date_close_approach": 1515032700000,
            "relative_velocity": {
                "kilometers_per_second": "7.451948096",
                "kilometers_per_hour": "26827.0131456602",
                "miles_per_hour": "16669.2626959798"
            },
            "miss_distance": {
                "astronomical": "0.0258283326",
                "lunar": "10.0472213814",
                "kilometers": "3863863.542611562",
                "miles": "2400893.4744690756"
            },
            "orbiting_body": "Earth"
        }
    ],
    "orbital_data": {
        "orbit_id": "3",
        "orbit_determination_date": "2018-01-27 06:55:31",
        "first_observation_date": "2018-01-12",
        "last_observation_date": "2018-01-26",
        "data_arc_in_days": 14,
        "observations_used": 30,
        "orbit_uncertainty": "8",
        "minimum_orbit_intersection": ".0216161",
        "jupiter_tisserand_invariant": "3.325",
        "epoch_osculation": "2458134.5",
        "eccentricity": ".5704541218137735",
        "semi_major_axis": "2.337298502849738",
        "inclination": "3.36125418511695",
        "ascending_node_longitude": "102.7164614748276",
        "orbital_period": "1305.177860125843",
        "perihelion_distance": "1.003976937989943",
        "perihelion_argument": "351.9307159038839",
        "aphelion_distance": "3.670620067709533",
        "perihelion_time": "2458115.817712097758",
        "mean_anomaly": "5.15303228033507",
        "mean_motion": ".2758244764934102",
        "equinox": "J2000",
        "orbit_class": {
            "orbit_class_type": "APO",
            "orbit_class_description": "Near-Earth asteroid orbits which cross the Earth’s orbit similar to that of 1862 Apollo",
            "orbit_class_range": "a (semi-major axis) > 1.0 AU; q (perihelion) < 1.017 AU"
        }
    },
    "is_sentry_object": false
}